[{"OBJECT_NAME":"STARLINK-30208","OBJECT_ID":"2023-102M","EPOCH":"2026-03-09T22:00:01.999584","MEAN_MOTION":15.18316824,"ECCENTRICITY":0.00014024,"INCLINATION":42.9996,"RA_OF_ASC_NODE":246.5084,"ARG_OF_PERICENTER":264.9324,"MEAN_ANOMALY":100.8486,"EPHEMERIS_TYPE":0,"CLASSIFICATION_TYPE":"U","NORAD_CAT_ID":57415,"ELEMENT_SET_NO":999,"REV_AT_EPOCH":577,"BSTAR":0.005884723,"MEAN_MOTION_DOT":0.00124918,"MEAN_MOTION_DDOT":0},{"OBJECT_NAME":"ION SCV-020","OBJECT_ID":"2025-135T","EPOCH":"2026-03-09T21:47:53.616480","MEAN_MOTION":15.20454047,"ECCENTRICITY":0.00028998,"INCLINATION":97.458,"RA_OF_ASC_NODE":184.8922,"ARG_OF_PERICENTER":140.0276,"MEAN_ANOMALY":220.1173,"EPHEMERIS_TYPE":0,"CLASSIFICATION_TYPE":"U","NORAD_CAT_ID":64545,"ELEMENT_SET_NO":999,"REV_AT_EPOCH":3976,"BSTAR":0.00023326396,"MEAN_MOTION_DOT":5.022e-5,"MEAN_MOTION_DDOT":0}]
